IRIDIUM 159             
1 43578U 18061K   23253.53947689  .00000305  00000+0  10179-3 0  9997
2 43578  86.3949 119.1288 0002132  87.9726 272.1714 14.34217336268526
IRIDIUM 180             
1 43922U 19002A   23253.53896721  .00000125  00000+0  37530-4 0  9997
2 43922  86.3940  55.9577 0001927  94.2120 265.9296 14.34219159244139
IRIDIUM 176             
1 43923U 19002B   23253.47917956  .00000514  00000+0  77541-4 0  9993
2 43923  86.6070  56.0175 0002262  89.9699 270.1777 14.72256067250543
IRIDIUM 168             
1 43924U 19002C   23253.53263607  .00000142  00000+0  43576-4 0  9996
2 43924  86.3941  56.0090 0002042  92.6545 267.4884 14.34217068244111
IRIDIUM 173             
1 43925U 19002D   23253.51995708  .00000117  00000+0  34893-4 0  9993
2 43925  86.3939  55.9447 0002099  93.6336 266.5100 14.34218207244098
IRIDIUM 169             
1 43926U 19002E   23253.53731391  .00000137  00000+0  38244-4 0  9998
2 43926  86.4169  87.5755 0005400  79.4045 280.7761 14.38619615244921
IRIDIUM 172             
1 43927U 19002F   23253.51358612  .00000125  00000+0  37482-4 0  9998
2 43927  86.3940  55.9522 0002016  93.7938 266.3489 14.34215905244106
IRIDIUM 175             
1 43928U 19002G   23253.47296075  .00001434  00000+0  22340-3 0  9998
2 43928  86.1506  45.0270 0002216  91.6983 268.4487 14.72262981250535
